0 FENGYUN 1C DEB
1 30192U 99025UZ  13282.37807062  .00017965  00000-0  41645-2 0  3511
2 30192 098.9986 067.4087 0083662 293.5752 093.6697 14.52951960353706
0 FENGYUN 1C DEB
1 30192U 99025UZ  13285.88466965  .00013088  00000-0  30347-2 0  3523
2 30192 098.9986 071.1713 0083536 283.0039 075.8371 14.53032788354213
0 FENGYUN 1C DEB
1 30192U 99025UZ  13286.87837914  .00012623  00000-0  29252-2 0  3537
2 30192 098.9972 072.2365 0083991 280.0179 233.8749 14.53049929354355
0 FENGYUN 1C DEB
1 30192U 99025UZ  13288.93901419  .00018527  00000-0  42753-2 0  3549
2 30192 098.9963 074.4462 0084384 273.8739 213.1948 14.53117035354655
0 FENGYUN 1C DEB
1 30192U 99025UZ  13292.86922979  .00018800  00000-0  43228-2 0  3553
2 30192 098.9954 078.6646 0085127 262.0903 253.8561 14.53241055355220
0 FENGYUN 1C DEB
1 30192U 99025UZ  13293.96595391  .00020184  00000-0  46391-2 0  3562
2 30192 098.9986 079.8418 0084418 258.8298 231.5809 14.53276768355381
0 FENGYUN 1C DEB
1 30192U 99025UZ  13295.39754329  .00024810  00000-0  56916-2 0  3574
2 30192 098.9985 081.3782 0084140 254.5991 161.4223 14.53323861355598
